OBJECT_NAME,OBJECT_ID,EPOCH,MEAN_MOTION,ECCENTRICITY,INCLINATION,RA_OF_ASC_NODE,ARG_OF_PERICENTER,MEAN_ANOMALY,EPHEMERIS_TYPE,CLASSIFICATION_TYPE,NORAD_CAT_ID,ELEMENT_SET_NO,REV_AT_EPOCH,BSTAR,MEAN_MOTION_DOT,MEAN_MOTION_DDOT
STARLINK-37519,2026-119C,2026-06-27T04:00:03.000096,15.36983894,.0000981,97.2844,204.0635,60.4373,254.4372,0,U,69298,999,548,-.79409E-3,-.28659E-3,0
STARLINK-37455,2026-119D,2026-06-27T01:38:13.151328,15.49200401,.0001011,97.2860,203.9082,118.4708,241.6645,0,U,69299,999,556,.10218E-2,.559E-3,0
STARLINK-37456,2026-119E,2026-06-27T04:00:03.000096,15.38691617,.0001362,97.2844,204.0812,106.1084,246.0798,0,U,69300,999,548,-.63417E-1,-.2176586E-1,0
STARLINK-37630,2026-119F,2026-06-27T00:52:19.670592,15.49216200,.0000925,97.2854,203.7978,75.4816,284.6538,0,U,69301,999,555,.11543E-2,.63257E-3,0
STARLINK-37804,2026-119G,2026-06-27T00:54:09.042624,15.49232415,.0001109,97.2829,203.7956,105.3424,254.7950,0,U,69302,999,555,.11856E-2,.65023E-3,0
STARLINK-37730,2026-119H,2026-06-27T04:00:03.000096,15.33459417,.0000804,97.2844,204.1023,48.2027,2.4479,0,U,69303,999,564,-.10512E-2,-.33877E-3,0
STARLINK-37731,2026-119J,2026-06-27T00:55:42.022848,15.49193613,.0001636,97.2863,203.7969,109.1248,251.0180,0,U,69304,999,555,.12937E-2,.70921E-3,0
STARLINK-37734,2026-119K,2026-06-27T04:00:03.000096,15.45043051,.0001665,97.2859,204.0905,58.4166,314.1348,0,U,69305,999,564,-.52757E-1,-.2194644E-1,0
STARLINK-37701,2026-119L,2026-06-27T04:00:03.000096,15.33408113,.0002106,97.2846,204.1244,89.1771,6.6364,0,U,69306,999,564,-.95329E-3,-.30693E-3,0
STARLINK-37732,2026-119M,2026-06-27T04:00:03.000096,15.33458860,.0001208,97.2845,204.1288,97.8312,12.9352,0,U,69307,999,564,-.11505E-2,-.37052E-3,0
STARLINK-37689,2026-119N,2026-06-27T00:50:45.478176,15.49227429,.0000337,97.2827,203.7972,27.6512,332.4757,0,U,69308,999,555,.80559E-3,.44027E-3,0
STARLINK-37619,2026-119P,2026-06-27T04:00:03.000096,15.36965532,.0001724,97.2847,204.1347,95.6495,28.4002,0,U,69309,999,564,-.8046E-3,-.2902E-3,0
STARLINK-37794,2026-119Q,2026-06-27T00:48:29.422368,15.49197758,.0000525,97.2852,203.9562,110.1076,250.0231,0,U,69310,999,556,.11886E-2,.65111E-3,0
STARLINK-37795,2026-119R,2026-06-27T00:44:12.232896,15.49231536,.0000437,97.2840,203.8067,312.7826,47.3389,0,U,69311,999,555,.10052E-2,.55042E-3,0
STARLINK-37790,2026-119S,2026-06-27T04:00:03.000096,15.41809245,.0001831,97.2844,204.1478,71.0923,76.3489,0,U,69312,999,564,-.66191E-1,-.2480636E-1,0
STARLINK-37676,2026-119T,2026-06-27T04:00:03.000096,15.33458198,.0001672,97.2846,204.1664,89.9697,110.7993,0,U,69313,999,564,-.12695E-2,-.40858E-3,0
STARLINK-37617,2026-119U,2026-06-27T04:00:03.000096,15.43496992,.0001481,97.2854,204.1569,79.9196,91.6906,0,U,69314,999,564,-.2263E-1,-.929565E-2,0
STARLINK-37627,2026-119V,2026-06-27T04:00:03.000096,15.41477242,.0001974,97.2851,204.1564,74.8022,94.0102,0,U,69315,999,564,-.66401E-1,-.2463314E-1,0
STARLINK-37738,2026-119W,2026-06-27T04:00:03.000096,15.45650684,.0002066,97.2843,204.1590,82.3649,104.8611,0,U,69316,999,564,-.64721E-1,-.2728555E-1,0
STARLINK-37799,2026-119X,2026-06-27T04:00:03.000096,15.33476801,.0002078,97.2846,204.1913,78.9169,181.7485,0,U,69317,999,559,-.12373E-2,-.39853E-3,0
STARLINK-37802,2026-119Y,2026-06-27T04:00:03.000096,15.36504257,.0001097,97.2845,204.2023,62.3461,210.7908,0,U,69318,999,564,-.90875E-1,-.2865656E-1,0
STARLINK-37803,2026-119Z,2026-06-27T00:49:19.251840,15.52235513,.0024787,97.2845,203.9534,237.5651,122.3205,0,U,69319,999,431,.55787E-1,.3997224E-1,0
GUOWANG TEST OBJECT A,2026-120A,2026-06-21T19:36:26.634816,15.38939558,.00113591,55.0017,6.9033,337.7695,22.2839,0,U,69320,999,340,.23139514E-3,.8673E-4,0
GUOWANG TEST OBJECT B,2026-120B,2026-06-26T21:09:55.666656,15.38968714,.0011528,54.9980,344.0861,355.4783,4.6140,0,U,69321,999,418,.3479E-3,.13261E-3,0
GUOWANG TEST OBJECT C,2026-120C,2026-06-24T12:50:17.868192,15.39708674,.00119516,54.9990,354.5630,356.3321,3.7618,0,U,69322,999,382,.33411019E-3,.1304E-3,0
GUOWANG TEST OBJECT D,2026-120D,2026-06-26T21:05:56.779296,15.38241613,.0012493,54.9978,344.0670,8.7046,351.4196,0,U,69323,999,418,.29776E-3,.11022E-3,0
QIANFAN-163,2026-121A,2026-06-20T19:57:23.546592,13.59758614,.00204763,89.0159,300.1473,178.2353,181.8879,0,U,69325,999,265,.30105417E-4,.35E-6,0
QIANFAN-164,2026-121B,2026-06-27T05:49:15.780864,13.57845678,.0020906,89.0178,299.5049,159.5832,200.6163,0,U,69326,999,352,.18974E-3,.149E-5,0
SZ-22 MODULE,2025-272C,2026-06-26T14:01:22.969632,15.60569974,.0006968,41.4799,264.9676,166.2989,193.8040,0,U,69328,999,479,.22795E-3,.19103E-3,0
