STARLINK-37519          
1 69298U 26119C   26178.16670139 -.00028659  00000+0 -79409-3 0  9993
2 69298  97.2844 204.0635 0000981  60.4373 254.4372 15.36983894  5481
STARLINK-37455          
1 69299U 26119D   26178.06820777  .00055900  00000+0  10218-2 0  9997
2 69299  97.2860 203.9082 0001011 118.4708 241.6645 15.49200401  5565
STARLINK-37456          
1 69300U 26119E   26178.16670139 -.02176586  00000+0 -63417-1 0  9992
2 69300  97.2844 204.0812 0001362 106.1084 246.0798 15.38691617  5483
STARLINK-37630          
1 69301U 26119F   26178.03633878  .00063257  00000+0  11543-2 0  9998
2 69301  97.2854 203.7978 0000925  75.4816 284.6538 15.49216200  5550
STARLINK-37804          
1 69302U 26119G   26178.03760466  .00065023  00000+0  11856-2 0  9993
2 69302  97.2829 203.7956 0001109 105.3424 254.7950 15.49232415  5554
STARLINK-37730          
1 69303U 26119H   26178.16670139 -.00033877  00000+0 -10512-2 0  9997
2 69303  97.2844 204.1023 0000804  48.2027   2.4479 15.33459417  5647
STARLINK-37731          
1 69304U 26119J   26178.03868082  .00070921  00000+0  12937-2 0  9992
2 69304  97.2863 203.7969 0001636 109.1248 251.0180 15.49193613  5550
STARLINK-37734          
1 69305U 26119K   26178.16670139 -.02194644  00000+0 -52757-1 0  9997
2 69305  97.2859 204.0905 0001665  58.4166 314.1348 15.45043051  5640
STARLINK-37701          
1 69306U 26119L   26178.16670139 -.00030693  00000+0 -95329-3 0  9993
2 69306  97.2846 204.1244 0002106  89.1771   6.6364 15.33408113  5640
STARLINK-37732          
1 69307U 26119M   26178.16670139 -.00037052  00000+0 -11505-2 0  9993
2 69307  97.2845 204.1288 0001208  97.8312  12.9352 15.33458860  5648
STARLINK-37689          
1 69308U 26119N   26178.03524859  .00044027  00000+0  80559-3 0  9991
2 69308  97.2827 203.7972 0000337  27.6512 332.4757 15.49227429  5550
STARLINK-37619          
1 69309U 26119P   26178.16670139 -.00029020  00000+0 -80460-3 0  9998
2 69309  97.2847 204.1347 0001724  95.6495  28.4002 15.36965532  5645
STARLINK-37794          
1 69310U 26119Q   26178.03367387  .00065111  00000+0  11886-2 0  9998
2 69310  97.2852 203.9562 0000525 110.1076 250.0231 15.49197758  5564
STARLINK-37795          
1 69311U 26119R   26178.03069714  .00055042  00000+0  10052-2 0  9998
2 69311  97.2840 203.8067 0000437 312.7826  47.3389 15.49231536  5559
STARLINK-37790          
1 69312U 26119S   26178.16670139 -.02480636  00000+0 -66191-1 0  9991
2 69312  97.2844 204.1478 0001831  71.0923  76.3489 15.41809245  5649
STARLINK-37676          
1 69313U 26119T   26178.16670139 -.00040858  00000+0 -12695-2 0  9999
2 69313  97.2846 204.1664 0001672  89.9697 110.7993 15.33458198  5649
STARLINK-37617          
1 69314U 26119U   26178.16670139 -.00929565  00000+0 -22630-1 0  9990
2 69314  97.2854 204.1569 0001481  79.9196  91.6906 15.43496992  5640
STARLINK-37627          
1 69315U 26119V   26178.16670139 -.02463314  00000+0 -66401-1 0  9992
2 69315  97.2851 204.1564 0001974  74.8022  94.0102 15.41477242  5642
STARLINK-37738          
1 69316U 26119W   26178.16670139 -.02728555  00000+0 -64721-1 0  9997
2 69316  97.2843 204.1590 0002066  82.3649 104.8611 15.45650684  5647
STARLINK-37799          
1 69317U 26119X   26178.16670139 -.00039853  00000+0 -12373-2 0  9999
2 69317  97.2846 204.1913 0002078  78.9169 181.7485 15.33476801  5592
STARLINK-37802          
1 69318U 26119Y   26178.16670139 -.02865656  00000+0 -90875-1 0  9992
2 69318  97.2845 204.2023 0001097  62.3461 210.7908 15.36504257  5646
STARLINK-37803          
1 69319U 26119Z   26178.03425060  .03997224  00000+0  55787-1 0  9999
2 69319  97.2845 203.9534 0024787 237.5651 122.3205 15.52235513  4313
GUOWANG TEST OBJECT A   
1 69320U 26120A   26172.81697494  .00008673  00000+0  23140-3 0  9993
2 69320  55.0017   6.9033 0011359 337.7695  22.2839 15.38939558  3409
GUOWANG TEST OBJECT B   
1 69321U 26120B   26177.88189429  .00013261  00000+0  34790-3 0  9992
2 69321  54.9980 344.0861 0011528 355.4783   4.6140 15.38968714  4186
GUOWANG TEST OBJECT C   
1 69322U 26120C   26175.53492903  .00013040  00000+0  33411-3 0  9991
2 69322  54.9990 354.5630 0011951 356.3321   3.7618 15.39708674  3824
GUOWANG TEST OBJECT D   
1 69323U 26120D   26177.87912939  .00011022  00000+0  29776-3 0  9994
2 69323  54.9978 344.0670 0012493   8.7046 351.4196 15.38241613  4181
QIANFAN-163             
1 69325U 26121A   26171.83152253  .00000035  00000+0  30105-4 0  9993
2 69325  89.0159 300.1473 0020476 178.2353 181.8879 13.59758614  2659
QIANFAN-164             
1 69326U 26121B   26178.24254376  .00000149  00000+0  18974-3 0  9990
2 69326  89.0178 299.5049 0020906 159.5832 200.6163 13.57845678  3521
SZ-22 MODULE            
1 69328U 25272C   26177.58429363  .00019103  00000+0  22795-3 0  9990
2 69328  41.4799 264.9676 0006968 166.2989 193.8040 15.60569974  4791
